2022-019U               
1 51842U 22019U   22068.17919159  .00006798  00000+0  27990-3 0  9993
2 51842  97.5667 145.0532 0071469 178.1006 266.4710 15.22090739  1524
2022-019V               
1 51843U 22019V   22068.19269530  .00001622  00000+0  10357-3 0  9997
2 51843  97.5230 144.8124 0014293 244.0929 200.1327 15.09989045  1514
2022-019W               
1 51844U 22019W   22068.19866638  .00003266  00000+0  20932-3 0  9996
2 51844  97.5190 144.8028 0017520 240.2276 204.0538 15.09106372  1412
2022-019X               
1 51845U 22019X   22068.19477078  .00004224  00000+0  26542-3 0  9991
2 51845  97.5205 144.8065 0015106 238.1978 206.0921 15.09702035  1432
2022-019Y               
1 51846U 22019Y   22068.19445955  .00003259  00000+0  20547-3 0  9997
2 51846  97.5182 144.8089 0015033 236.1616 208.1232 15.09739730  1439
STRIX-BETA              
1 51847U 22020A   22068.15422620  .00002676  00000+0  21408-3 0  9999
2 51847  97.7758 121.9302 0012851 264.1298  95.8478 15.01014086  1241
ELECTRON KICK STAGE R/B 
1 51848U 22020B   22068.13498602  .00007495  00000+0  36701-3 0  9997
2 51848  97.0919 120.5868 0060602   2.5185 357.6344 15.16798229  1258
ELECTRON R/B            
1 51849U 22020C   22068.12510760  .01937083  22989-5  12709-2 0  9990
2 51849  97.7258 122.6286 0228310 193.2955 166.2539 15.80693678  1280
2022-021A               
1 51850U 22021A   22067.70688914 -.00000138  00000+0  00000+0 0  9997
2 51850   4.6857 333.8223 2855834 180.6883 255.3067  1.48866788   121
2022-021B               
1 51851U 22021B   22067.25478565 -.00000173  00000+0  00000+0 0  9996
2 51851   9.6596 333.3544 4767289 179.3032 287.9351  1.85559660   112
STARLINK-3542           
1 51852U 22022A   22067.91667824 -.00875615  00000+0 -52332-2 0  9999
2 51852  53.2176 117.9545 0001146  68.0156 151.0940 15.79461688  1474
STARLINK-3539           
1 51853U 22022B   22067.91667824 -.00875611  00000+0 -52385-2 0  9994
2 51853  53.2176 117.9557 0001169  65.3134 153.4244 15.79439293  1479
STARLINK-3541           
1 51854U 22022C   22067.91667824 -.00875734  00000+0 -52287-2 0  9992
2 51854  53.2176 117.9538 0001137  76.6977 142.7876 15.79483765  1479
STARLINK-3545           
1 51855U 22022D   22067.91667824 -.00875735  00000+0 -52173-2 0  9998
2 51855  53.2176 117.9527 0001184  67.5133 152.6824 15.79530934  1477
STARLINK-3568           
1 51856U 22022E   22067.91667824 -.00875650  00000+0 -52223-2 0  9991
2 51856  53.2176 117.9532 0001148  69.9282 149.9035 15.79508057  1479
STARLINK-3571           
1 51857U 22022F   22067.91667824 -.00875812  00000+0 -52067-2 0  9998
2 51857  53.2176 117.9513 0001202  62.8471 158.0663 15.79577156  1476
STARLINK-3563           
1 51858U 22022G   22067.91667824 -.00875665  00000+0 -52113-2 0  9997
2 51858  53.2176 117.9517 0001180  64.8143 155.7394 15.79554079  1478
STARLINK-3560           
1 51859U 22022H   22067.91667824 -.00875864  00000+0 -51908-2 0  9990
2 51859  53.2176 117.9491 0001153  73.5790 148.4148 15.79645574  1483
STARLINK-3559           
1 51860U 22022J   22067.91667824 -.00875773  00000+0 -52011-2 0  9997
2 51860  53.2176 117.9503 0001209  62.5729 158.7075 15.79599451  1486
STARLINK-3562           
1 51861U 22022K   22067.91667824 -.00875839  00000+0 -51798-2 0  9992
2 51861  53.2176 117.9477 0001175  63.4884 159.2240 15.79690822  1474
STARLINK-3508           
1 51862U 22022L   22067.91667824 -.00875784  00000+0 -51959-2 0  9991
2 51862  53.2176 117.9496 0001136  73.7279 147.9132 15.79622178  1478
STARLINK-3555           
1 51863U 22022M   22067.91667824 -.00875924  00000+0 -51695-2 0  9995
2 51863  53.2176 117.9463 0001183  65.7594 157.6659 15.79736352  1502
STARLINK-3548           
1 51864U 22022N   22067.91667824 -.00875849  00000+0 -51852-2 0  9997
2 51864  53.2176 117.9482 0001168  69.4818 152.8682 15.79668498  1482
STARLINK-3503           
1 51865U 22022P   22067.91667824 -.00875938  00000+0 -51589-2 0  9994
2 51865  53.2176 117.9449 0001122  74.7684 149.3645 15.79781898  1475
STARLINK-3553           
1 51866U 22022Q   22067.91667824 -.00875882  00000+0 -51747-2 0  9999
2 51866  53.2176 117.9468 0001178  65.5123 157.5593 15.79713391  1481
STARLINK-3590           
1 51867U 22022R   22067.91667824 -.00875933  00000+0 -51536-2 0  9993
2 51867  53.2176 117.9442 0001134  69.8482 154.6458 15.79803974  1475
STARLINK-3578           
1 51868U 22022S   22067.91667824 -.00875858  00000+0 -51638-2 0  9993
2 51868  53.2176 117.9454 0001167  67.3287 156.4558 15.79758681  1500
STARLINK-3588           
1 51869U 22022T   22067.91667824 -.00876028  00000+0 -51383-2 0  9991
2 51869  53.2176 117.9420 0001120  78.9771 146.5822 15.79871255  1472
STARLINK-3591           
1 51870U 22022U   22067.91667824 -.00875986  00000+0 -51483-2 0  9996
2 51870  53.2176 117.9433 0001186  62.0277 162.8112 15.79827302  1506
STARLINK-3567           
1 51871U 22022V   22067.91667824 -.00876056  00000+0 -51327-2 0  9993
2 51871  53.2176 117.9414 0001205  59.6031 166.2935 15.79894928  1507
STARLINK-3554           
1 51872U 22022W   22067.91667824 -.00876128  00000+0 -51439-2 0  9998
2 51872  53.2176 117.9424 0001333  53.7002 171.5104 15.79848392  1505
STARLINK-3582           
1 51873U 22022X   22067.91667824 -.00876176  00000+0 -51171-2 0  9995
2 51873  53.2176 117.9393 0001237  58.4461 168.4820 15.79963941  1503
STARLINK-3574           
1 51874U 22022Y   22067.91667824 -.00876181  00000+0 -51277-2 0  9999
2 51874  53.2176 117.9405 0001250  56.2875 169.9402 15.79919068  1477
STARLINK-3585           
1 51875U 22022Z   22067.91667824 -.00876177  00000+0 -51067-2 0  9992
2 51875  53.2176 117.9379 0001198  61.7031 165.9270 15.80008429  1510
STARLINK-3583           
1 51876U 22022AA  22067.91667824 -.00876107  00000+0 -51223-2 0  9990
2 51876  53.2176 117.9398 0001207  61.1674 165.4256 15.79940298  1505
STARLINK-3556           
1 51877U 22022AB  22067.91667824 -.00876315  00000+0 -50966-2 0  9995
2 51877  53.2176 117.9365 0001285  53.1370 175.1737 15.80054296  1485
STARLINK-3575           
1 51878U 22022AC  22067.91667824 -.00876172  00000+0 -51122-2 0  9992
2 51878  53.2176 117.9383 0001148  73.9449 153.3448 15.79985403  1502
STARLINK-3572           
1 51879U 22022AD  22067.91667824 -.00876286  00000+0 -50859-2 0  9995
2 51879  53.2176 117.9351 0001232  59.5439 169.4514 15.80099504  1503
STARLINK-3566           
1 51880U 22022AE  22067.91667824 -.00876128  00000+0 -51009-2 0  9990
2 51880  53.2176 117.9370 0001161  64.7661 163.1945 15.80032061  1506
STARLINK-3504           
1 51881U 22022AF  22067.91667824 -.00876343  00000+0 -50756-2 0  9998
2 51881  53.2176 117.9337 0001271  55.5784 174.0991 15.80144613  1471
STARLINK-3570           
1 51882U 22022AG  22067.91667824 -.00876276  00000+0 -50912-2 0  9998
2 51882  53.2176 117.9356 0001248  54.9281 173.7297 15.80076539  1502
STARLINK-3576           
1 51883U 22022AH  22067.91667824 -.00876375  00000+0 -50653-2 0  9991
2 51883  53.2176 117.9324 0001221  60.8301 169.5235 15.80189893  1477
STARLINK-3577           
1 51884U 22022AJ  22067.91667824 -.00876320  00000+0 -50808-2 0  9994
2 51884  53.2176 117.9342 0001234  57.7225 171.6135 15.80122134  1470
STARLINK-3584           
1 51885U 22022AK  22067.91667824 -.00876556  00000+0 -50561-2 0  9992
2 51885  53.2176 117.9309 0001341  48.0464 183.0086 15.80233045  1477
STARLINK-3565           
1 51886U 22022AL  22067.91667824 -.00876410  00000+0 -50708-2 0  9995
2 51886  53.2176 117.9328 0001295  53.0387 176.9853 15.80166693  1508
STARLINK-3551           
1 51887U 22022AM  22067.91667824 -.00876388  00000+0 -50494-2 0  9992
2 51887  53.2176 117.9304 0001233  57.4906 173.8650 15.80258124  1478
STARLINK-3536           
1 51888U 22022AN  22067.91667824 -.00876330  00000+0 -50599-2 0  9996
2 51888  53.2176 117.9315 0001184  63.3180 167.3779 15.80212062  1501
STARLINK-3547           
1 51889U 22022AP  22067.91667824 -.00876472  00000+0 -50345-2 0  9993
2 51889  53.2176 117.9284 0001158  67.3658 165.0031 15.80324964  1503
STARLINK-3519           
1 51890U 22022AQ  22067.91667824 -.00876528  00000+0 -50452-2 0  9996
2 51890  53.2176 117.9294 0001284  52.5231 179.1851 15.80279461  1506
STARLINK-3549           
1 51891U 22022AR  22067.91667824 -.00876570  00000+0 -50295-2 0  9999
2 51891  53.2176 117.9277 0001289  51.8031 180.8924 15.80347921  1487
STARLINK AS             
1 51892U 22022AS  22067.91667824 -.00876531  00000+0 -50399-2 0  9992
2 51892  53.2176 117.9288 0001298  53.0850 178.9553 15.80302129  1479
STARLINK-3579           
1 51893U 22022AT  22067.91667824 -.00876606  00000+0 -50195-2 0  9990
2 51893  53.2176 117.9264 0001248  55.8105 177.5569 15.80392238  1474
STARLINK-3587           
1 51894U 22022AU  22067.91667824 -.00876468  00000+0 -50242-2 0  9990
2 51894  53.2177 117.9268 0001157  68.8643 164.1805 15.80369103  1470
STARLINK-3594           
1 51895U 22022AV  22067.91667824 -.00876686  00000+0 -50096-2 0  9990
2 51895  53.2177 117.9251 0001260  54.8949 179.1358 15.80436942  1477
STARLINK-3593           
1 51896U 22022AW  22067.91667824 -.00876696  00000+0 -50146-2 0  9998
2 51896  53.2176 117.9254 0001318  51.3330 182.3594 15.80415133  1501
STARLINK-3598           
1 51897U 22022AX  22067.91667824 -.00876498  00000+0 -50038-2 0  9999
2 51897  53.2176 117.9243 0001165  65.9679 168.4129 15.80457696  1472
STARLINK-3597           
1 51898U 22022AY  22067.91667824 -.00876657  00000+0 -49993-2 0  9995
2 51898  53.2176 117.9234 0001247  56.2382 178.4639 15.80480677  1470
FALCON 9 DEB            
1 51899U 22022AZ  22067.61581207  .00161409  00000+0  56422-3 0  9999
2 51899  53.2274 119.3640 0007560 304.0710  55.9599 15.88300830   800
FALCON 9 DEB            
1 51900U 22022BA  22067.61472077  .00169632  00000+0  58149-3 0  9990
2 51900  53.2257 119.3548 0005420 287.5453  72.4981 15.88690629   800
